[
    {
        "Altitude(m)": 717302.7892034953,
        "Argument of Periapsis(deg)": 0.004556048474650827,
        "Eccentricity": 0.0,
        "Inclination(deg)": 45.0,
        "Latitude(deg)": -43.752623478380656,
        "Longitude(deg)": -142.51238786165493,
        "Mean Anomaly(deg)": 282.7950866589924,
        "RAAN(deg)": 29.995699223416718,
        "Satellite Name": "Constellation 1 149",
        "Satellite Number": 149,
        "Semi-Major Axis(m)": 7083131.272910544,
        "Time(s)": 76
    },
    {
        "Altitude(m)": 717297.3576921232,
        "Argument of Periapsis(deg)": 0.004615996480896233,
        "Eccentricity": 0.0,
        "Inclination(deg)": 45.0,
        "Latitude(deg)": -43.73949663231833,
        "Longitude(deg)": -142.4348683412671,
        "Mean Anomaly(deg)": 282.8557877992422,
        "RAAN(deg)": 29.995642634251144,
        "Satellite Name": "Constellation 1 149",
        "Satellite Number": 149,
        "Semi-Major Axis(m)": 7083131.272910544,
        "Time(s)": 77
    },
    {
        "Altitude(m)": 717291.901927303,
        "Argument of Periapsis(deg)": 0.004675944487141638,
        "Eccentricity": 0.0,
        "Inclination(deg)": 45.0,
        "Latitude(deg)": -43.72631149956366,
        "Longitude(deg)": -142.35738447725012,
        "Mean Anomaly(deg)": 282.91648893949207,
        "RAAN(deg)": 29.995586045085574,
        "Satellite Name": "Constellation 1 149",
        "Satellite Number": 149,
        "Semi-Major Axis(m)": 7083131.272910544,
        "Time(s)": 78
    },
    {
        "Altitude(m)": 717286.4219291111,
        "Argument of Periapsis(deg)": 0.004735892493387044,
        "Eccentricity": 0.0,
        "Inclination(deg)": 45.0,
        "Latitude(deg)": -43.71306813182029,
        "Longitude(deg)": -142.27993639524516,
        "Mean Anomaly(deg)": 282.977190079742,
        "RAAN(deg)": 29.995529455920007,
        "Satellite Name": "Constellation 1 149",
        "Satellite Number": 149,
        "Semi-Major Axis(m)": 7083131.272910544,
        "Time(s)": 79
    },
    {
        "Altitude(m)": 717280.917717705,
        "Argument of Periapsis(deg)": 0.004795840499632449,
        "Eccentricity": 0.0,
        "Inclination(deg)": 45.0,
        "Latitude(deg)": -43.699766580962674,
        "Longitude(deg)": -142.20252422036273,
        "Mean Anomaly(deg)": 283.03789121999193,
        "RAAN(deg)": 29.99547286675444,
        "Satellite Name": "Constellation 1 149",
        "Satellite Number": 149,
        "Semi-Major Axis(m)": 7083131.272910544,
        "Time(s)": 80
    },
    {
        "Altitude(m)": 717275.3893133422,
        "Argument of Periapsis(deg)": 0.004855788505877855,
        "Eccentricity": 0.0,
        "Inclination(deg)": 45.0,
        "Latitude(deg)": -43.68640689903472,
        "Longitude(deg)": -142.1251480771807,
        "Mean Anomaly(deg)": 283.0985923602418,
        "RAAN(deg)": 29.995416277588866,
        "Satellite Name": "Constellation 1 149",
        "Satellite Number": 149,
        "Semi-Major Axis(m)": 7083131.272910544,
        "Time(s)": 81
    },
    {
        "Altitude(m)": 717269.8367363537,
        "Argument of Periapsis(deg)": 0.00491573651212326,
        "Eccentricity": 0.0,
        "Inclination(deg)": 45.0,
        "Latitude(deg)": -43.67298913824883,
        "Longitude(deg)": -142.0478082578409,
        "Mean Anomaly(deg)": 283.1592935004917,
        "RAAN(deg)": 29.995359688423303,
        "Satellite Name": "Constellation 1 149",
        "Satellite Number": 149,
        "Semi-Major Axis(m)": 7083131.272910544,
        "Time(s)": 82
    },
    {
        "Altitude(m)": 717264.2600071739,
        "Argument of Periapsis(deg)": 0.004975684518368666,
        "Eccentricity": 0.0,
        "Inclination(deg)": 45.0,
        "Latitude(deg)": -43.65951335098606,
        "Longitude(deg)": -141.97050454965932,
        "Mean Anomaly(deg)": 283.2199946407416,
        "RAAN(deg)": 29.99530309925773,
        "Satellite Name": "Constellation 1 149",
        "Satellite Number": 149,
        "Semi-Major Axis(m)": 7083131.272910544,
        "Time(s)": 83
    },
    {
        "Altitude(m)": 717258.6591463204,
        "Argument of Periapsis(deg)": 0.005035632524614072,
        "Eccentricity": 0.0,
        "Inclination(deg)": 45.0,
        "Latitude(deg)": -43.64597958979364,
        "Longitude(deg)": -141.89323724370914,
        "Mean Anomaly(deg)": 283.28069578099155,
        "RAAN(deg)": 29.99524651009216,
        "Satellite Name": "Constellation 1 149",
        "Satellite Number": 149,
        "Semi-Major Axis(m)": 7083131.272910544,
        "Time(s)": 84
    },
    {
        "Altitude(m)": 717253.0341743934,
        "Argument of Periapsis(deg)": 0.0050955805308594785,
        "Eccentricity": 0.0,
        "Inclination(deg)": 45.0,
        "Latitude(deg)": -43.63238790738518,
        "Longitude(deg)": -141.81600646243015,
        "Mean Anomaly(deg)": 283.3413969212414,
        "RAAN(deg)": 29.995189920926585,
        "Satellite Name": "Constellation 1 149",
        "Satellite Number": 149,
        "Semi-Major Axis(m)": 7083131.272910544,
        "Time(s)": 85
    },
    {
        "Altitude(m)": 717247.3851120888,
        "Argument of Periapsis(deg)": 0.005155528537104883,
        "Eccentricity": 0.0,
        "Inclination(deg)": 45.0,
        "Latitude(deg)": -43.6187383566394,
        "Longitude(deg)": -141.73881232772536,
        "Mean Anomaly(deg)": 283.40209806149136,
        "RAAN(deg)": 29.99513333176102,
        "Satellite Name": "Constellation 1 149",
        "Satellite Number": 149,
        "Semi-Major Axis(m)": 7083131.272910544,
        "Time(s)": 86
    },
    {
        "Altitude(m)": 717241.7119801894,
        "Argument of Periapsis(deg)": 0.0052154765433502885,
        "Eccentricity": 0.0,
        "Inclination(deg)": 45.0,
        "Latitude(deg)": -43.605030990599374,
        "Longitude(deg)": -141.66165496096048,
        "Mean Anomaly(deg)": 283.46279920174123,
        "RAAN(deg)": 29.995076742595447,
        "Satellite Name": "Constellation 1 149",
        "Satellite Number": 149,
        "Semi-Major Axis(m)": 7083131.272910544,
        "Time(s)": 87
    },
    {
        "Altitude(m)": 717236.0147995563,
        "Argument of Periapsis(deg)": 0.005275424549595694,
        "Eccentricity": 0.0,
        "Inclination(deg)": 45.0,
        "Latitude(deg)": -43.59126586247162,
        "Longitude(deg)": -141.58453448296314,
        "Mean Anomaly(deg)": 283.52350034199117,
        "RAAN(deg)": 29.99502015342988,
        "Satellite Name": "Constellation 1 149",
        "Satellite Number": 149,
        "Semi-Major Axis(m)": 7083131.272910544,
        "Time(s)": 88
    },
    {
        "Altitude(m)": 717230.2935911547,
        "Argument of Periapsis(deg)": 0.0053353725558411,
        "Eccentricity": 0.0,
        "Inclination(deg)": 45.0,
        "Latitude(deg)": -43.577443025624845,
        "Longitude(deg)": -141.50745118211893,
        "Mean Anomaly(deg)": 283.584201482241,
        "RAAN(deg)": 29.99496356426431,
        "Satellite Name": "Constellation 1 149",
        "Satellite Number": 149,
        "Semi-Major Axis(m)": 7083131.272910544,
        "Time(s)": 89
    },
    {
        "Altitude(m)": 717224.5483760269,
        "Argument of Periapsis(deg)": 0.005395320562086505,
        "Eccentricity": 0.0,
        "Inclination(deg)": 45.0,
        "Latitude(deg)": -43.56356253359022,
        "Longitude(deg)": -141.43040484198167,
        "Mean Anomaly(deg)": 283.64490262249086,
        "RAAN(deg)": 29.994906975098743,
        "Satellite Name": "Constellation 1 149",
        "Satellite Number": 149,
        "Semi-Major Axis(m)": 7083131.272910544,
        "Time(s)": 90
    },
    {
        "Altitude(m)": 717218.7791753022,
        "Argument of Periapsis(deg)": 0.00545526856833191,
        "Eccentricity": 0.0,
        "Inclination(deg)": 45.0,
        "Latitude(deg)": -43.5496244400588,
        "Longitude(deg)": -141.35339574985642,
        "Mean Anomaly(deg)": 283.7056037627408,
        "RAAN(deg)": 29.99485038593317,
        "Satellite Name": "Constellation 1 149",
        "Satellite Number": 149,
        "Semi-Major Axis(m)": 7083131.272910544,
        "Time(s)": 91
    },
    {
        "Altitude(m)": 717212.9860102055,
        "Argument of Periapsis(deg)": 0.005515216574577317,
        "Eccentricity": 0.0,
        "Inclination(deg)": 45.0,
        "Latitude(deg)": -43.535628798881866,
        "Longitude(deg)": -141.27642402441006,
        "Mean Anomaly(deg)": 283.7663049029907,
        "RAAN(deg)": 29.994793796767606,
        "Satellite Name": "Constellation 1 149",
        "Satellite Number": 149,
        "Semi-Major Axis(m)": 7083131.272910544,
        "Time(s)": 92
    },
    {
        "Altitude(m)": 717207.1689020413,
        "Argument of Periapsis(deg)": 0.005575164580822722,
        "Eccentricity": 0.0,
        "Inclination(deg)": 45.0,
        "Latitude(deg)": -43.52157566406951,
        "Longitude(deg)": -141.19948978376675,
        "Mean Anomaly(deg)": 283.8270060432406,
        "RAAN(deg)": 29.994737207602032,
        "Satellite Name": "Constellation 1 149",
        "Satellite Number": 149,
        "Semi-Major Axis(m)": 7083131.272910544,
        "Time(s)": 93
    },
    {
        "Altitude(m)": 717201.3278722042,
        "Argument of Periapsis(deg)": 0.005635112587068129,
        "Eccentricity": 0.0,
        "Inclination(deg)": 45.0,
        "Latitude(deg)": -43.50746508978998,
        "Longitude(deg)": -141.12259314550818,
        "Mean Anomaly(deg)": 283.8877071834905,
        "RAAN(deg)": 29.994680618436465,
        "Satellite Name": "Constellation 1 149",
        "Satellite Number": 149,
        "Semi-Major Axis(m)": 7083131.272910544,
        "Time(s)": 94
    }
]